STARLINK-31802          
1 59636U 24082F   26067.60755837  .00000589  00000+0  30949-4 0  9997
2 59636  42.9999 146.1577 0001721 175.8159 184.2708 15.27580835104640
FLOCK 4G-5              
1 62663U 25009BG  26068.45638436  .00011278  00000+0  40688-3 0  9997
2 62663  97.4058 151.2478 0002094 314.5072  45.5996 15.28679529 63699
